$$SOE
2460728.500000000, A.D. 2025-Feb-22 00:00:00.0000, -6.709986308397683E+07, 4.289442267865188E+08, -1.363362151144686E+07,
2460735.500000000, A.D. 2025-Mar-01 00:00:00.0000, -7.761443557041590E+07, 4.282000146074994E+08, -1.317534736222771E+07,
2460742.500000000, A.D. 2025-Mar-08 00:00:00.0000, -8.808320713720110E+07, 4.272041438663434E+08, -1.270931582533002E+07,
2460749.500000000, A.D. 2025-Mar-15 00:00:00.0000, -9.850037211505713E+07, 4.259589181647100E+08, -1.223585299989420E+07,
2460756.500000000, A.D. 2025-Mar-22 00:00:00.0000, -1.088602354181906E+08, 4.244667579923747E+08, -1.175528465612587E+07,
2460763.500000000, A.D. 2025-Mar-29 00:00:00.0000, -1.191572142952564E+08, 4.227301941284276E+08, -1.126793607838190E+07,
2460770.500000000, A.D. 2025-Apr-05 00:00:00.0000, -1.293858382045770E+08, 4.207518620299668E+08, -1.077413200231054E+07,
2460777.500000000, A.D. 2025-Apr-12 00:00:00.0000, -1.395407487493365E+08, 4.185344973183355E+08, -1.027419646120706E+07,
2460784.500000000, A.D. 2025-Apr-19 00:00:00.0000, -1.496166998694723E+08, 4.160809314844300E+08, -9.768452596337914E+06,
2460791.500000000, A.D. 2025-Apr-26 00:00:00.0000, -1.596085580288571E+08, 4.133940876125097E+08, -9.257222472569615E+06,
2460798.500000000, A.D. 2025-May-03 00:00:00.0000, -1.695113022942210E+08, 4.104769761442556E+08, -8.740826908020467E+06,
2460805.500000000, A.D. 2025-May-10 00:00:00.0000, -1.793200242869652E+08, 4.073326906940010E+08, -8.219585319481313E+06,
2460812.500000000, A.D. 2025-May-17 00:00:00.0000, -1.890299279804772E+08, 4.039644038758417E+08, -7.693815590116143E+06,
2460819.500000000, A.D. 2025-May-24 00:00:00.0000, -1.986363291780302E+08, 4.003753630893081E+08, -7.163833979571462E+06,
2460826.500000000, A.D. 2025-May-31 00:00:00.0000, -2.081346542623633E+08, 3.965688865751771E+08, -6.629955089073598E+06,
2460833.500000000, A.D. 2025-Jun-07 00:00:00.0000, -2.175204386270488E+08, 3.925483609470391E+08, -6.092491746008337E+06,
2460840.500000000, A.D. 2025-Jun-14 00:00:00.0000, -2.267893271624987E+08, 3.883172395335557E+08, -5.551754645469099E+06,
2460847.500000000, A.D. 2025-Jun-21 00:00:00.0000, -2.359370755853090E+08, 3.838790382592012E+08, -5.008052127262264E+06,
2460854.500000000, A.D. 2025-Jun-28 00:00:00.0000, -2.449595494899214E+08, 3.792373308243634E+08, -4.461690230305374E+06,
2460861.500000000, A.D. 2025-Jul-05 00:00:00.0000, -2.538527226487594E+08, 3.743957453411802E+08, -3.912972708830103E+06,
2460868.500000000, A.D. 2025-Jul-12 00:00:00.0000, -2.626126757586522E+08, 3.693579616204297E+08, -3.362200966791645E+06,
2460875.500000000, A.D. 2025-Jul-19 00:00:00.0000, -2.712355954496018E+08, 3.641277085328717E+08, -2.809673974433109E+06,
2460882.500000000, A.D. 2025-Jul-26 00:00:00.0000, -2.797177733518645E+08, 3.587087613863190E+08, -2.255688190404087E+06,
2460889.500000000, A.D. 2025-Aug-02 00:00:00.0000, -2.880556051618487E+08, 3.531049393380368E+08, -1.700537493204355E+06,
2460896.500000000, A.D. 2025-Aug-09 00:00:00.0000, -2.962455896890375E+08, 3.473201028258392E+08, -1.144513124832124E+06,
2460903.500000000, A.D. 2025-Aug-16 00:00:00.0000, -3.042843278123023E+08, 3.413581509525816E+08, -5.879036583722085E+05,
2460910.500000000, A.D. 2025-Aug-23 00:00:00.0000, -3.121685210580146E+08, 3.352230188382462E+08, -3.099501449160278E+04,
2460917.500000000, A.D. 2025-Aug-30 00:00:00.0000, -3.198949694760486E+08, 3.289186756511289E+08, 5.259295018759668E+05,
2460924.500000000, A.D. 2025-Sep-06 00:00:00.0000, -3.274605702375082E+08, 3.224491243163880E+08, 1.082589356929690E+06,
2460931.500000000, A.D. 2025-Sep-13 00:00:00.0000, -3.348623186300853E+08, 3.158184004185508E+08, 1.638707086171895E+06,
2460938.500000000, A.D. 2025-Sep-20 00:00:00.0000, -3.420973081797275E+08, 3.090305686514847E+08, 2.194008301356882E+06,
2460945.500000000, A.D. 2025-Sep-27 00:00:00.0000, -3.491627288426371E+08, 3.020897199228925E+08, 2.748221564102158E+06,
2460952.500000000, A.D. 2025-Oct-04 00:00:00.0000, -3.560558652887949E+08, 2.949999696503784E+08, 3.301078355501696E+06,
2460959.500000000, A.D. 2025-Oct-11 00:00:00.0000, -3.627740956528988E+08, 2.877654563044859E+08, 3.852313099223271E+06,
2460966.500000000, A.D. 2025-Oct-18 00:00:00.0000, -3.693148904699888E+08, 2.803903399206235E+08, 4.401663190037042E+06,
2460973.500000000, A.D. 2025-Oct-25 00:00:00.0000, -3.756758116582360E+08, 2.728788005862147E+08, 4.948869016196921E+06,
2460980.500000000, A.D. 2025-Nov-01 00:00:00.0000, -3.818545115130725E+08, 2.652350369145437E+08, 5.493673973482206E+06,
2460987.500000000, A.D. 2025-Nov-08 00:00:00.0000, -3.878487316825498E+08, 2.574632644713790E+08, 6.035824465169966E+06,
2460994.500000000, A.D. 2025-Nov-15 00:00:00.0000, -3.936563019800636E+08, 2.495677140945567E+08, 6.575069869515345E+06,
2461001.500000000, A.D. 2025-Nov-22 00:00:00.0000, -3.992751386345307E+08, 2.415526303255879E+08, 7.111162455715448E+06,
2461008.500000000, A.D. 2025-Nov-29 00:00:00.0000, -4.047032421331595E+08, 2.334222710866010E+08, 7.643857355111137E+06,
2461015.500000000, A.D. 2025-Dec-06 00:00:00.0000, -4.099386969366878E+08, 2.251809084646932E+08, 8.172912785314903E+06,
2461022.500000000, A.D. 2025-Dec-13 00:00:00.0000, -4.149796726355097E+08, 2.168328272323718E+08, 8.698090212019116E+06,
2461029.500000000, A.D. 2025-Dec-20 00:00:00.0000, -4.198244230526769E+08, 2.083823221249807E+08, 9.219154211915359E+06,
2461036.500000000, A.D. 2025-Dec-27 00:00:00.0000, -4.244712843676401E+08, 1.998336964620157E+08, 9.735872347189575E+06,
2461043.500000000, A.D. 2026-Jan-03 00:00:00.0000, -4.289186737227624E+08, 1.911912614940295E+08, 1.024801513516897E+07,
2461050.500000000, A.D. 2026-Jan-10 00:00:00.0000, -4.331650882049819E+08, 1.824593357950557E+08, 1.075535604770071E+07,
2461057.500000000, A.D. 2026-Jan-17 00:00:00.0000, -4.372091039710650E+08, 1.736422446075983E+08, 1.125767151169255E+07,
2461064.500000000, A.D. 2026-Jan-24 00:00:00.0000, -4.410493754393778E+08, 1.647443191611950E+08, 1.175474090579237E+07,
2461071.500000000, A.D. 2026-Jan-31 00:00:00.0000, -4.446846345256754E+08, 1.557698959555934E+08, 1.224634655071422E+07,
2461078.500000000, A.D. 2026-Feb-07 00:00:00.0000, -4.481136898622970E+08, 1.467233159498331E+08, 1.273227368314486E+07,
2461085.500000000, A.D. 2026-Feb-14 00:00:00.0000, -4.513354257483298E+08, 1.376089236406781E+08, 1.321231038901724E+07,
2461092.500000000, A.D. 2026-Feb-21 00:00:00.0000, -4.543488004433636E+08, 1.284310666060254E+08, 1.368624750799112E+07,
2461099.500000000, A.D. 2026-Feb-28 00:00:00.0000, -4.571528448897780E+08, 1.191940966648271E+08, 1.415387870306840E+07,
2461106.500000000, A.D. 2026-Mar-07 00:00:00.0000, -4.597466639232640E+08, 1.099023707014842E+08, 1.461500072487520E+07,
2461113.500000000, A.D. 2026-Mar-14 00:00:00.0000, -4.621294371967610E+08, 1.005602488208466E+08, 1.506941342553450E+07,
2461120.500000000, A.D. 2026-Mar-21 00:00:00.0000, -4.643004180331137E+08, 9.117209272982542E+07, 1.551691959570166E+07,
2461127.500000000, A.D. 2026-Mar-28 00:00:00.0000, -4.662589322148446E+08, 8.174226537027967E+07, 1.595732489330756E+07,
2461134.500000000, A.D. 2026-Apr-04 00:00:00.0000, -4.680043773165171E+08, 7.227513083415952E+07, 1.639043784061946E+07,
2461141.500000000, A.D. 2026-Apr-11 00:00:00.0000, -4.695362223077103E+08, 6.277505419899129E+07, 1.681606983536567E+07,
2461148.500000000, A.D. 2026-Apr-18 00:00:00.0000, -4.708540072683102E+08, 5.324640127536866E+07, 1.723403516113293E+07,
2461155.500000000, A.D. 2026-Apr-25 00:00:00.0000, -4.719573431707344E+08, 4.369353827942322E+07, 1.764415099439896E+07,
2461162.500000000, A.D. 2026-May-02 00:00:00.0000, -4.728459116986083E+08, 3.412083139889339E+07, 1.804623740328819E+07,
2461169.500000000, A.D. 2026-May-09 00:00:00.0000, -4.735194649773393E+08, 2.453264618481854E+07, 1.844011732149050E+07,
2461176.500000000, A.D. 2026-May-16 00:00:00.0000, -4.739778248385153E+08, 1.493334690546784E+07, 1.882561647420996E+07,
2461183.500000000, A.D. 2026-May-23 00:00:00.0000, -4.742208815659764E+08, 5.327296883080615E+06, 1.920256333509695E+07,
2461190.500000000, A.D. 2026-May-30 00:00:00.0000, -4.742485942019777E+08, -4.281139869090937E+06, 1.957078933095879E+07,
2461197.500000000, A.D. 2026-Jun-06 00:00:00.0000, -4.740609927319618E+08, -1.388759898471652E+07, 1.993012905581048E+07,
2461204.500000000, A.D. 2026-Jun-13 00:00:00.0000, -4.736581784823499E+08, -2.348771785852147E+07, 2.028042017432678E+07,
2461211.500000000, A.D. 2026-Jun-20 00:00:00.0000, -4.730403232294071E+08, -3.307713661089617E+07, 2.062150329971275E+07,
2461218.500000000, A.D. 2026-Jun-27 00:00:00.0000, -4.722076687142494E+08, -4.265149824555012E+07, 2.095322197368026E+07,
2461225.500000000, A.D. 2026-Jul-04 00:00:00.0000, -4.711605265631812E+08, -5.220644877888255E+07, 2.127542268484130E+07,
2461232.500000000, A.D. 2026-Jul-11 00:00:00.0000, -4.698992783602111E+08, -6.173763747636312E+07, 2.158795489118417E+07,
2461239.500000000, A.D. 2026-Jul-18 00:00:00.0000, -4.684243757805072E+08, -7.124071717284204E+07, 2.189067104006741E+07,
2461246.500000000, A.D. 2026-Jul-25 00:00:00.0000, -4.667363407618929E+08, -8.071134467594743E+07, 2.218342658361770E+07,
2461253.500000000, A.D. 2026-Aug-01 00:00:00.0000, -4.648357656673219E+08, -9.014518130196798E+07, 2.246607998113121E+07,
2461260.500000000, A.D. 2026-Aug-08 00:00:00.0000, -4.627233132236995E+08, -9.953789358115852E+07, 2.273849266581309E+07,
2461267.500000000, A.D. 2026-Aug-15 00:00:00.0000, -4.603997158214918E+08, -1.088851536832042E+08, 2.300052897458564E+07,
2461274.500000000, A.D. 2026-Aug-22 00:00:00.0000, -4.578657749350232E+08, -1.181826383430236E+08, 2.325205621055463E+07,
2461281.500000000, A.D. 2026-Aug-29 00:00:00.0000, -4.551223629516988E+08, -1.274260276619422E+08, 2.349294493585021E+07,
2461288.500000000, A.D. 2026-Sep-05 00:00:00.0000, -4.521704252772450E+08, -1.366110066549163E+08, 2.372306906481619E+07,
2461295.500000000, A.D. 2026-Sep-12 00:00:00.0000, -4.490109802624909E+08, -1.457332670493944E+08, 2.394230573655281E+07,
$$EOE